start=new Date('2023-04-27T00:00:00.000Z').valueOf();
sats=[{"EPOCH":"2023-04-26T03:46:39.976896","MEAN_ANOMALY":"264.5887","MEAN_MOTION":"15.08814629","OBJECT_ID":"2022-025AF","CENTER_NAME":"EARTH","COUNTRY_CODE":"US","PERIOD":"95.439","MEAN_MOTION_DOT":"-0.00005876","REF_FRAME":"TEME","ELEMENT_SET_NO":"999","MEAN_ELEMENT_THEORY":"SGP4","ARG_OF_PERICENTER":"95.5278","DECAY_DATE":null,"SEMIMAJOR_AXIS":"6917.958","CLASSIFICATION_TYPE":"U","SITE":"AFETR","PERIAPSIS":"538.772","LAUNCH_DATE":"2022-03-09","TIME_SYSTEM":"UTC","REV_AT_EPOCH":"6276","NORAD_CAT_ID":"51985","ECCENTRICITY":"0.00015190","APOAPSIS":"540.874","EPHEMERIS_TYPE":"0","OBJECT_TYPE":"PAYLOAD","FILE":"3894260","TLE_LINE1":"1 51985U 22025AF  23116.15740714 -.00005876  00000-0 -35165-3 0  9992","OBJECT_NAME":"STARLINK-3651","MEAN_MOTION_DDOT":"0.0000000000000","GP_ID":"230773722","RCS_SIZE":"LARGE","BSTAR":"-0.00035165000000","RA_OF_ASC_NODE":"66.1741","INCLINATION":"53.2196","TLE_LINE2":"2 51985  53.2196  66.1741 0001519  95.5278 264.5887 15.08814629 62768"},{"EPHEMERIS_TYPE":"0","APOAPSIS":"535.557","ECCENTRICITY":"0.00013620","OBJECT_TYPE":"PAYLOAD","FILE":"3894261","TLE_LINE1":"1 51986U 22025AG  23117.00001157 -.00046921  00000-0 -28159-2 0  9999","OBJECT_NAME":"STARLINK-3645","NORAD_CAT_ID":"51986","REV_AT_EPOCH":"130","RA_OF_ASC_NODE":"62.3395","TLE_LINE2":"2 51986  53.2159  62.3395 0001362 107.0135  18.7938 15.10519873  1303","INCLINATION":"53.2159","MEAN_MOTION_DDOT":"0.0000000000000","RCS_SIZE":"LARGE","GP_ID":"230799478","BSTAR":"-0.00281590000000","CENTER_NAME":"EARTH","PERIOD":"95.331","COUNTRY_CODE":"US","REF_FRAME":"TEME","MEAN_MOTION_DOT":"-0.00046921","EPOCH":"2023-04-27T00:00:00.999648","MEAN_MOTION":"15.10519873","MEAN_ANOMALY":"18.7938","OBJECT_ID":"2022-025AG","PERIAPSIS":"533.674","SITE":"AFETR","LAUNCH_DATE":"2022-03-09","TIME_SYSTEM":"UTC","ELEMENT_SET_NO":"999","MEAN_ELEMENT_THEORY":"SGP4","SEMIMAJOR_AXIS":"6912.750","DECAY_DATE":null,"ARG_OF_PERICENTER":"107.0135","CLASSIFICATION_TYPE":"U"},{"CLASSIFICATION_TYPE":"U","SEMIMAJOR_AXIS":"6917.946","DECAY_DATE":null,"ARG_OF_PERICENTER":"95.1131","MEAN_ELEMENT_THEORY":"SGP4","ELEMENT_SET_NO":"999","TIME_SYSTEM":"UTC","LAUNCH_DATE":"2022-03-09","PERIAPSIS":"538.986","SITE":"AFETR","OBJECT_ID":"2022-025AH","MEAN_MOTION":"15.08818507","MEAN_ANOMALY":"264.9997","EPOCH":"2023-04-26T06:24:15.423552","REF_FRAME":"TEME","MEAN_MOTION_DOT":"-0.00004878","COUNTRY_CODE":"US","PERIOD":"95.439","CENTER_NAME":"EARTH","BSTAR":"-0.00028879000000","RCS_SIZE":"LARGE","GP_ID":"230773223","MEAN_MOTION_DDOT":"0.0000000000000","TLE_LINE2":"2 51987  53.2169  65.6713 0001192  95.1131 264.9997 15.08818507 62781","INCLINATION":"53.2169","RA_OF_ASC_NODE":"65.6713","NORAD_CAT_ID":"51987","REV_AT_EPOCH":"6278","OBJECT_NAME":"STARLINK-3644","TLE_LINE1":"1 51987U 22025AH  23116.26684518 -.00004878  00000-0 -28879-3 0  9990","OBJECT_TYPE":"PAYLOAD","FILE":"3894260","EPHEMERIS_TYPE":"0","APOAPSIS":"540.636","ECCENTRICITY":"0.00011920"},{"REV_AT_EPOCH":"6278","NORAD_CAT_ID":"51988","FILE":"3894260","OBJECT_TYPE":"PAYLOAD","APOAPSIS":"540.709","ECCENTRICITY":"0.00012990","EPHEMERIS_TYPE":"0","OBJECT_NAME":"STARLINK-3640","TLE_LINE1":"1 51988U 22025AJ  23116.24845834 -.00004415  00000-0 -25964-3 0  9998","GP_ID":"230773473","RCS_SIZE":"LARGE","MEAN_MOTION_DDOT":"0.0000000000000","BSTAR":"-0.00025964000000","INCLINATION":"53.2174","TLE_LINE2":"2 51988  53.2174  65.7536 0001299  85.6370 274.4770 15.08818892 62781","RA_OF_ASC_NODE":"65.7536","MEAN_ANOMALY":"274.4770","MEAN_MOTION":"15.08818892","EPOCH":"2023-04-26T05:57:46.800576","OBJECT_ID":"2022-025AJ","PERIOD":"95.439","COUNTRY_CODE":"US","CENTER_NAME":"EARTH","MEAN_MOTION_DOT":"-0.00004415","REF_FRAME":"TEME","MEAN_ELEMENT_THEORY":"SGP4","ELEMENT_SET_NO":"999","CLASSIFICATION_TYPE":"U","DECAY_DATE":null,"ARG_OF_PERICENTER":"85.6370","SEMIMAJOR_AXIS":"6917.945","LAUNCH_DATE":"2022-03-09","SITE":"AFETR","PERIAPSIS":"538.911","TIME_SYSTEM":"UTC"},{"OBJECT_ID":"2022-025AK","MEAN_ANOMALY":"268.2966","MEAN_MOTION":"15.08829512","EPOCH":"2023-04-26T06:18:57.525120","MEAN_MOTION_DOT":"-0.00005088","REF_FRAME":"TEME","PERIOD":"95.438","COUNTRY_CODE":"US","CENTER_NAME":"EARTH","CLASSIFICATION_TYPE":"U","ARG_OF_PERICENTER":"91.8141","DECAY_DATE":null,"SEMIMAJOR_AXIS":"6917.912","MEAN_ELEMENT_THEORY":"SGP4","ELEMENT_SET_NO":"999","TIME_SYSTEM":"UTC","LAUNCH_DATE":"2022-03-09","SITE":"AFETR","PERIAPSIS":"539.082","REV_AT_EPOCH":"6278","NORAD_CAT_ID":"51989","OBJECT_NAME":"STARLINK-3642","TLE_LINE1":"1 51989U 22025AK  23116.26316580 -.00005088  00000-0 -30189-3 0  9994","FILE":"3894260","OBJECT_TYPE":"PAYLOAD","ECCENTRICITY":"0.00010050","APOAPSIS":"540.473","EPHEMERIS_TYPE":"0","BSTAR":"-0.00030189000000","GP_ID":"230774222","RCS_SIZE":"LARGE","MEAN_MOTION_DDOT":"0.0000000000000","INCLINATION":"53.2189","TLE_LINE2":"2 51989  53.2189  65.6858 0001005  91.8141 268.2966 15.08829512 62783","RA_OF_ASC_NODE":"65.6858"},{"TIME_SYSTEM":"UTC","SITE":"AFETR","PERIAPSIS":"538.795","LAUNCH_DATE":"2022-03-09","DECAY_DATE":null,"ARG_OF_PERICENTER":"112.8789","SEMIMAJOR_AXIS":"6917.987","CLASSIFICATION_TYPE":"U","ELEMENT_SET_NO":"999","MEAN_ELEMENT_THEORY":"SGP4","MEAN_MOTION_DOT":"-0.00009448","REF_FRAME":"TEME","CENTER_NAME":"EARTH","COUNTRY_CODE":"US","PERIOD":"95.440","OBJECT_ID":"2022-025AL","EPOCH":"2023-04-26T05:33:54.625536","MEAN_ANOMALY":"247.2365","MEAN_MOTION":"15.08805104","RA_OF_ASC_NODE":"45.8311","INCLINATION":"53.2187","TLE_LINE2":"2 51990  53.2187  45.8311 0001528 112.8789 247.2365 15.08805104 63051","BSTAR":"-0.00057684000000","MEAN_MOTION_DDOT":"0.0000000000000","GP_ID":"230773954","RCS_SIZE":"LARGE","TLE_LINE1":"1 51990U 22025AL  23116.23188224 -.00009448  00000-0 -57684-3 0  9998","OBJECT_NAME":"STARLINK-3657","ECCENTRICITY":"0.00015280","APOAPSIS":"540.909","EPHEMERIS_TYPE":"0","FILE":"3894260","OBJECT_TYPE":"PAYLOAD","REV_AT_EPOCH":"6305","NORAD_CAT_ID":"51990"},{"MEAN_MOTION_DDOT":"0.0000000000000","RCS_SIZE":"LARGE","GP_ID":"230772723","BSTAR":"-0.00034988000000","RA_OF_ASC_NODE":"65.7167","TLE_LINE2":"2 51991  53.2183  65.7167 0001575 100.8824 259.2345 15.08814209 62783","INCLINATION":"53.2183","NORAD_CAT_ID":"51991","REV_AT_EPOCH":"6278","EPHEMERIS_TYPE":"0","ECCENTRICITY":"0.00015750","APOAPSIS":"540.914","OBJECT_TYPE":"PAYLOAD","FILE":"3894260","TLE_LINE1":"1 51991U 22025AM  23116.25580712 -.00005848  00000-0 -34988-3 0  9991","OBJECT_NAME":"STARLINK-3652","ELEMENT_SET_NO":"999","MEAN_ELEMENT_THEORY":"SGP4","SEMIMAJOR_AXIS":"6917.959","DECAY_DATE":null,"ARG_OF_PERICENTER":"100.8824","CLASSIFICATION_TYPE":"U","PERIAPSIS":"538.735","SITE":"AFETR","LAUNCH_DATE":"2022-03-09","TIME_SYSTEM":"UTC","EPOCH":"2023-04-26T06:08:21.735168","MEAN_MOTION":"15.08814209","MEAN_ANOMALY":"259.2345","OBJECT_ID":"2022-025AM","CENTER_NAME":"EARTH","PERIOD":"95.439","COUNTRY_CODE":"US","REF_FRAME":"TEME","MEAN_MOTION_DOT":"-0.00005848"},{"TLE_LINE2":"2 51992  53.2162  46.4717 0000893  62.3632 297.7451 15.08832267 62609","INCLINATION":"53.2162","RA_OF_ASC_NODE":"46.4717","RCS_SIZE":"LARGE","GP_ID":"230772973","MEAN_MOTION_DDOT":"0.0000000000000","BSTAR":"-0.00016162000000","OBJECT_TYPE":"PAYLOAD","FILE":"3894260","EPHEMERIS_TYPE":"0","ECCENTRICITY":"0.00008930","APOAPSIS":"540.387","OBJECT_NAME":"STARLINK-3643","TLE_LINE1":"1 51992U 22025AN  23116.08835358 -.00002858  00000-0 -16162-3 0  9994","NORAD_CAT_ID":"51992","REV_AT_EPOCH":"6260","LAUNCH_DATE":"2022-03-09","PERIAPSIS":"539.151","SITE":"AFETR","TIME_SYSTEM":"UTC","MEAN_ELEMENT_THEORY":"SGP4","ELEMENT_SET_NO":"999","CLASSIFICATION_TYPE":"U","SEMIMAJOR_AXIS":"6917.904","ARG_OF_PERICENTER":"62.3632","DECAY_DATE":null,"COUNTRY_CODE":"US","PERIOD":"95.438","CENTER_NAME":"EARTH","REF_FRAME":"TEME","MEAN_MOTION_DOT":"-0.00002858","MEAN_MOTION":"15.08832267","MEAN_ANOMALY":"297.7451","EPOCH":"2023-04-26T02:07:13.749312","OBJECT_ID":"2022-025AN"},{"CLASSIFICATION_TYPE":"U","SEMIMAJOR_AXIS":"6917.935","DECAY_DATE":null,"ARG_OF_PERICENTER":"81.6128","MEAN_ELEMENT_THEORY":"SGP4","ELEMENT_SET_NO":"999","TIME_SYSTEM":"UTC","LAUNCH_DATE":"2022-03-09","PERIAPSIS":"538.832","SITE":"AFETR","OBJECT_ID":"2022-025AP","MEAN_MOTION":"15.08822041","MEAN_ANOMALY":"278.5023","EPOCH":"2023-04-26T05:52:28.439040","REF_FRAME":"TEME","MEAN_MOTION_DOT":"-0.00003417","PERIOD":"95.439","COUNTRY_CODE":"US","CENTER_NAME":"EARTH","BSTAR":"-0.00019680000000","RCS_SIZE":"LARGE","GP_ID":"230773723","MEAN_MOTION_DDOT":"0.0000000000000","TLE_LINE2":"2 51993  53.2184  65.7687 0001399  81.6128 278.5023 15.08822041 62780","INCLINATION":"53.2184","RA_OF_ASC_NODE":"65.7687","NORAD_CAT_ID":"51993","REV_AT_EPOCH":"6278","OBJECT_NAME":"STARLINK-3648","TLE_LINE1":"1 51993U 22025AP  23116.24477360 -.00003417  00000-0 -19680-3 0  9998","OBJECT_TYPE":"PAYLOAD","FILE":"3894260","EPHEMERIS_TYPE":"0","ECCENTRICITY":"0.00013990","APOAPSIS":"540.768"},{"OBJECT_ID":"2022-025AQ","EPOCH":"2023-04-26T05:12:42.105600","MEAN_MOTION":"15.08806693","MEAN_ANOMALY":"287.7544","REF_FRAME":"TEME","MEAN_MOTION_DOT":"-0.00011794","CENTER_NAME":"EARTH","COUNTRY_CODE":"US","PERIOD":"95.440","SEMIMAJOR_AXIS":"6917.982","ARG_OF_PERICENTER":"72.3572","DECAY_DATE":null,"CLASSIFICATION_TYPE":"U","ELEMENT_SET_NO":"999","MEAN_ELEMENT_THEORY":"SGP4","TIME_SYSTEM":"UTC","PERIAPSIS":"539.065","SITE":"AFETR","LAUNCH_DATE":"2022-03-09","NORAD_CAT_ID":"51994","REV_AT_EPOCH":"6263","TLE_LINE1":"1 51994U 22025AQ  23116.21715400 -.00011794  00000-0 -72481-3 0  9991","OBJECT_NAME":"STARLINK-3647","EPHEMERIS_TYPE":"0","ECCENTRICITY":"0.00011300","APOAPSIS":"540.629","FILE":"3894260","OBJECT_TYPE":"PAYLOAD","BSTAR":"-0.00072481000000","MEAN_MOTION_DDOT":"0.0000000000000","RCS_SIZE":"LARGE","GP_ID":"230774454","RA_OF_ASC_NODE":"45.8984","TLE_LINE2":"2 51994  53.2178  45.8984 0001130  72.3572 287.7544 15.08806693 62635","INCLINATION":"53.2178"}];
